IRIDIUM 173             
1 43925U 19002D   26074.27827407  .00000078  00000+0  20809-4 0  9998
2 43925  86.3982  32.7966 0002028  84.8467 275.2960 14.34218073375495
IRIDIUM 169             
1 43926U 19002E   26074.21284075  .00000126  00000+0  34577-4 0  9992
2 43926  86.4177  64.4745 0001505  91.0683 269.0688 14.38606718376714
IRIDIUM 172             
1 43927U 19002F   26074.27192966  .00000166  00000+0  52327-4 0  9993
2 43927  86.3982  32.8065 0002277  83.8719 276.2737 14.34218799375503
IRIDIUM 175             
1 43928U 19002G   26074.22309575  .00000952  00000+0  14698-3 0  9996
2 43928  86.1533 330.0363 0002822 102.3107 257.8426 14.72241404385414
IRIDIUM 171             
1 43929U 19002H   26074.25290459  .00000014  00000+0 -19061-5 0  9991
2 43929  86.3989  33.1109 0002069  92.0639 268.0794 14.34217603375490
IRIDIUM 170             
1 43930U 19002J   26074.16584898  .00001140  00000+0  17682-3 0  9991
2 43930  86.6103  32.8354 0002624  87.0439 273.1079 14.72248927385422
IRIDIUM 167             
1 43931U 19002K   26074.24656154 -.00000028  00000+0 -16933-4 0  9991
2 43931  86.3981  32.8393 0001884  95.3400 264.8011 14.34217306375498
IRIDIUM 181             
1 56726U 23068S   26074.30378799  .00000191  00000+0  50757-4 0  9998
2 56726  86.4447  96.0499 0002623  91.8626 268.2876 14.43309297148894
IRIDIUM 177             
1 56727U 23068T   26074.22117269  .00001503  00000+0  19432-3 0  9995
2 56727  86.2010  13.3983 0002187  76.0132 284.1332 14.80226160152461
IRIDIUM 174             
1 56728U 23068U   26074.15347115  .00001336  00000+0  20796-3 0  9992
2 56728  86.6113  32.9786 0002579  78.4053 281.7454 14.72253731152183
IRIDIUM 178             
1 56729U 23068V   26074.21025082  .00000577  00000+0  72473-4 0  9992
2 56729  86.6493  64.6275 0002587  98.5360 261.6155 14.80231399152464
IRIDIUM 179             
1 56730U 23068W   26074.27247530  .00001132  00000+0  14559-3 0  9992
2 56730  86.6724  73.3091 0002356  94.6773 265.4718 14.80230154152471
