[{"OBJECT_NAME":"IRIDIUM 173","OBJECT_ID":"2019-002D","EPOCH":"2026-03-15T06:40:42.879648","MEAN_MOTION":14.34218073,"ECCENTRICITY":0.00020286,"INCLINATION":86.3982,"RA_OF_ASC_NODE":32.7966,"ARG_OF_PERICENTER":84.8467,"MEAN_ANOMALY":275.296,"EPHEMERIS_TYPE":0,"CLASSIFICATION_TYPE":"U","NORAD_CAT_ID":43925,"ELEMENT_SET_NO":999,"REV_AT_EPOCH":37549,"BSTAR":2.0808863e-5,"MEAN_MOTION_DOT":7.8e-7,"MEAN_MOTION_DDOT":0},{"OBJECT_NAME":"IRIDIUM 169","OBJECT_ID":"2019-002E","EPOCH":"2026-03-15T05:06:29.440800","MEAN_MOTION":14.38606718,"ECCENTRICITY":0.00015058,"INCLINATION":86.4177,"RA_OF_ASC_NODE":64.4745,"ARG_OF_PERICENTER":91.0683,"MEAN_ANOMALY":269.0688,"EPHEMERIS_TYPE":0,"CLASSIFICATION_TYPE":"U","NORAD_CAT_ID":43926,"ELEMENT_SET_NO":999,"REV_AT_EPOCH":37671,"BSTAR":3.457718e-5,"MEAN_MOTION_DOT":1.26e-6,"MEAN_MOTION_DDOT":0},{"OBJECT_NAME":"IRIDIUM 172","OBJECT_ID":"2019-002F","EPOCH":"2026-03-15T06:31:34.722624","MEAN_MOTION":14.34218799,"ECCENTRICITY":0.00022773,"INCLINATION":86.3982,"RA_OF_ASC_NODE":32.8065,"ARG_OF_PERICENTER":83.8719,"MEAN_ANOMALY":276.2737,"EPHEMERIS_TYPE":0,"CLASSIFICATION_TYPE":"U","NORAD_CAT_ID":43927,"ELEMENT_SET_NO":999,"REV_AT_EPOCH":37550,"BSTAR":5.2327463e-5,"MEAN_MOTION_DOT":1.66e-6,"MEAN_MOTION_DDOT":0},{"OBJECT_NAME":"IRIDIUM 175","OBJECT_ID":"2019-002G","EPOCH":"2026-03-15T05:21:15.472800","MEAN_MOTION":14.72241404,"ECCENTRICITY":0.00028224,"INCLINATION":86.1533,"RA_OF_ASC_NODE":330.0363,"ARG_OF_PERICENTER":102.3107,"MEAN_ANOMALY":257.8426,"EPHEMERIS_TYPE":0,"CLASSIFICATION_TYPE":"U","NORAD_CAT_ID":43928,"ELEMENT_SET_NO":999,"REV_AT_EPOCH":38541,"BSTAR":0.00014697827,"MEAN_MOTION_DOT":9.52e-6,"MEAN_MOTION_DDOT":0},{"OBJECT_NAME":"IRIDIUM 171","OBJECT_ID":"2019-002H","EPOCH":"2026-03-15T06:04:10.956576","MEAN_MOTION":14.34217603,"ECCENTRICITY":0.00020694,"INCLINATION":86.3989,"RA_OF_ASC_NODE":33.1109,"ARG_OF_PERICENTER":92.0639,"MEAN_ANOMALY":268.0794,"EPHEMERIS_TYPE":0,"CLASSIFICATION_TYPE":"U","NORAD_CAT_ID":43929,"ELEMENT_SET_NO":999,"REV_AT_EPOCH":37549,"BSTAR":-1.906065e-6,"MEAN_MOTION_DOT":1.4e-7,"MEAN_MOTION_DDOT":0},{"OBJECT_NAME":"IRIDIUM 170","OBJECT_ID":"2019-002J","EPOCH":"2026-03-15T03:58:49.351872","MEAN_MOTION":14.72248927,"ECCENTRICITY":0.00026244,"INCLINATION":86.6103,"RA_OF_ASC_NODE":32.8354,"ARG_OF_PERICENTER":87.0439,"MEAN_ANOMALY":273.1079,"EPHEMERIS_TYPE":0,"CLASSIFICATION_TYPE":"U","NORAD_CAT_ID":43930,"ELEMENT_SET_NO":999,"REV_AT_EPOCH":38542,"BSTAR":0.00017682457,"MEAN_MOTION_DOT":1.14e-5,"MEAN_MOTION_DDOT":0},{"OBJECT_NAME":"IRIDIUM 167","OBJECT_ID":"2019-002K","EPOCH":"2026-03-15T05:55:02.917056","MEAN_MOTION":14.34217306,"ECCENTRICITY":0.00018846,"INCLINATION":86.3981,"RA_OF_ASC_NODE":32.8393,"ARG_OF_PERICENTER":95.34,"MEAN_ANOMALY":264.8011,"EPHEMERIS_TYPE":0,"CLASSIFICATION_TYPE":"U","NORAD_CAT_ID":43931,"ELEMENT_SET_NO":999,"REV_AT_EPOCH":37549,"BSTAR":-1.6932836e-5,"MEAN_MOTION_DOT":-2.8e-7,"MEAN_MOTION_DDOT":0},{"OBJECT_NAME":"IRIDIUM 181","OBJECT_ID":"2023-068S","EPOCH":"2026-03-15T07:17:27.282336","MEAN_MOTION":14.43309297,"ECCENTRICITY":0.00026237,"INCLINATION":86.4447,"RA_OF_ASC_NODE":96.0499,"ARG_OF_PERICENTER":91.8626,"MEAN_ANOMALY":268.2876,"EPHEMERIS_TYPE":0,"CLASSIFICATION_TYPE":"U","NORAD_CAT_ID":56726,"ELEMENT_SET_NO":999,"REV_AT_EPOCH":14889,"BSTAR":5.0757148e-5,"MEAN_MOTION_DOT":1.91e-6,"MEAN_MOTION_DDOT":0},{"OBJECT_NAME":"IRIDIUM 177","OBJECT_ID":"2023-068T","EPOCH":"2026-03-15T05:18:29.320416","MEAN_MOTION":14.8022616,"ECCENTRICITY":0.00021876,"INCLINATION":86.201,"RA_OF_ASC_NODE":13.3983,"ARG_OF_PERICENTER":76.0132,"MEAN_ANOMALY":284.1332,"EPHEMERIS_TYPE":0,"CLASSIFICATION_TYPE":"U","NORAD_CAT_ID":56727,"ELEMENT_SET_NO":999,"REV_AT_EPOCH":15246,"BSTAR":0.00019432246,"MEAN_MOTION_DOT":1.503e-5,"MEAN_MOTION_DDOT":0},{"OBJECT_NAME":"IRIDIUM 174","OBJECT_ID":"2023-068U","EPOCH":"2026-03-15T03:40:59.907360","MEAN_MOTION":14.72253731,"ECCENTRICITY":0.00025795,"INCLINATION":86.6113,"RA_OF_ASC_NODE":32.9786,"ARG_OF_PERICENTER":78.4053,"MEAN_ANOMALY":281.7454,"EPHEMERIS_TYPE":0,"CLASSIFICATION_TYPE":"U","NORAD_CAT_ID":56728,"ELEMENT_SET_NO":999,"REV_AT_EPOCH":15218,"BSTAR":0.00020796493,"MEAN_MOTION_DOT":1.336e-5,"MEAN_MOTION_DDOT":0},{"OBJECT_NAME":"IRIDIUM 178","OBJECT_ID":"2023-068V","EPOCH":"2026-03-15T05:02:45.670848","MEAN_MOTION":14.80231399,"ECCENTRICITY":0.00025877,"INCLINATION":86.6493,"RA_OF_ASC_NODE":64.6275,"ARG_OF_PERICENTER":98.536,"MEAN_ANOMALY":261.6155,"EPHEMERIS_TYPE":0,"CLASSIFICATION_TYPE":"U","NORAD_CAT_ID":56729,"ELEMENT_SET_NO":999,"REV_AT_EPOCH":15246,"BSTAR":7.2473012e-5,"MEAN_MOTION_DOT":5.77e-6,"MEAN_MOTION_DDOT":0},{"OBJECT_NAME":"IRIDIUM 179","OBJECT_ID":"2023-068W","EPOCH":"2026-03-15T06:32:21.865920","MEAN_MOTION":14.80230154,"ECCENTRICITY":0.00023563,"INCLINATION":86.6724,"RA_OF_ASC_NODE":73.3091,"ARG_OF_PERICENTER":94.6773,"MEAN_ANOMALY":265.4718,"EPHEMERIS_TYPE":0,"CLASSIFICATION_TYPE":"U","NORAD_CAT_ID":56730,"ELEMENT_SET_NO":999,"REV_AT_EPOCH":15247,"BSTAR":0.0001455922,"MEAN_MOTION_DOT":1.132e-5,"MEAN_MOTION_DDOT":0}]
